[{"OBJECT_NAME":"DMSP 5D-3 F16 (USA 172)","OBJECT_ID":"2003-048A","EPOCH":"2026-03-07T03:59:01.161024","MEAN_MOTION":14.14460862,"ECCENTRICITY":0.0008157,"INCLINATION":98.9996,"RA_OF_ASC_NODE":89.2741,"ARG_OF_PERICENTER":79.0237,"MEAN_ANOMALY":2.4581,"EPHEMERIS_TYPE":0,"CLASSIFICATION_TYPE":"U","NORAD_CAT_ID":28054,"ELEMENT_SET_NO":999,"REV_AT_EPOCH":15506,"BSTAR":0.00010635,"MEAN_MOTION_DOT":1.58e-6,"MEAN_MOTION_DDOT":0},{"OBJECT_NAME":"METEOSAT-9 (MSG-2)","OBJECT_ID":"2005-049B","EPOCH":"2026-03-07T02:09:20.625120","MEAN_MOTION":1.00278827,"ECCENTRICITY":0.0001569,"INCLINATION":9.1309,"RA_OF_ASC_NODE":55.1553,"ARG_OF_PERICENTER":224.373,"MEAN_ANOMALY":323.3977,"EPHEMERIS_TYPE":0,"CLASSIFICATION_TYPE":"U","NORAD_CAT_ID":28912,"ELEMENT_SET_NO":999,"REV_AT_EPOCH":597,"BSTAR":0,"MEAN_MOTION_DOT":1.23e-6,"MEAN_MOTION_DDOT":0},{"OBJECT_NAME":"DMSP 5D-3 F17 (USA 191)","OBJECT_ID":"2006-050A","EPOCH":"2026-03-07T03:10:35.089248","MEAN_MOTION":14.14962516,"ECCENTRICITY":0.0009915,"INCLINATION":98.7414,"RA_OF_ASC_NODE":74.7795,"ARG_OF_PERICENTER":354.2908,"MEAN_ANOMALY":5.8151,"EPHEMERIS_TYPE":0,"CLASSIFICATION_TYPE":"U","NORAD_CAT_ID":29522,"ELEMENT_SET_NO":999,"REV_AT_EPOCH":99798,"BSTAR":0.00014089,"MEAN_MOTION_DOT":2.29e-6,"MEAN_MOTION_DDOT":0},{"OBJECT_NAME":"FENGYUN 3A","OBJECT_ID":"2008-026A","EPOCH":"2026-03-06T13:31:19.064640","MEAN_MOTION":14.19545242,"ECCENTRICITY":0.00097533,"INCLINATION":98.6795,"RA_OF_ASC_NODE":8.3685,"ARG_OF_PERICENTER":66.3473,"MEAN_ANOMALY":293.8727,"EPHEMERIS_TYPE":0,"CLASSIFICATION_TYPE":"U","NORAD_CAT_ID":32958,"ELEMENT_SET_NO":999,"REV_AT_EPOCH":92084,"BSTAR":9.6360478e-5,"MEAN_MOTION_DOT":1.6e-6,"MEAN_MOTION_DDOT":0},{"OBJECT_NAME":"GOES 14","OBJECT_ID":"2009-033A","EPOCH":"2026-03-07T03:46:38.577216","MEAN_MOTION":1.00100668,"ECCENTRICITY":0.0001762,"INCLINATION":1.4261,"RA_OF_ASC_NODE":84.3808,"ARG_OF_PERICENTER":257.9935,"MEAN_ANOMALY":79.309,"EPHEMERIS_TYPE":0,"CLASSIFICATION_TYPE":"U","NORAD_CAT_ID":35491,"ELEMENT_SET_NO":999,"REV_AT_EPOCH":556,"BSTAR":0,"MEAN_MOTION_DOT":1.21e-6,"MEAN_MOTION_DDOT":0},{"OBJECT_NAME":"DMSP 5D-3 F18 (USA 210)","OBJECT_ID":"2009-057A","EPOCH":"2026-03-07T02:17:54.216096","MEAN_MOTION":14.14833841,"ECCENTRICITY":0.0010979,"INCLINATION":98.8961,"RA_OF_ASC_NODE":47.1339,"ARG_OF_PERICENTER":175.6471,"MEAN_ANOMALY":184.4799,"EPHEMERIS_TYPE":0,"CLASSIFICATION_TYPE":"U","NORAD_CAT_ID":35951,"ELEMENT_SET_NO":999,"REV_AT_EPOCH":84515,"BSTAR":0.00018682,"MEAN_MOTION_DOT":3.16e-6,"MEAN_MOTION_DDOT":0},{"OBJECT_NAME":"EWS-G2 (GOES 15)","OBJECT_ID":"2010-008A","EPOCH":"2026-03-07T02:14:27.633696","MEAN_MOTION":1.00269918,"ECCENTRICITY":0.0002107,"INCLINATION":1.0152,"RA_OF_ASC_NODE":85.0941,"ARG_OF_PERICENTER":17.4335,"MEAN_ANOMALY":159.3498,"EPHEMERIS_TYPE":0,"CLASSIFICATION_TYPE":"U","NORAD_CAT_ID":36411,"ELEMENT_SET_NO":999,"REV_AT_EPOCH":5861,"BSTAR":0,"MEAN_MOTION_DOT":1.9e-7,"MEAN_MOTION_DDOT":0},{"OBJECT_NAME":"COMS 1","OBJECT_ID":"2010-032A","EPOCH":"2026-03-06T09:17:38.863104","MEAN_MOTION":1.00271769,"ECCENTRICITY":0.00012474,"INCLINATION":4.5407,"RA_OF_ASC_NODE":76.8433,"ARG_OF_PERICENTER":292.8421,"MEAN_ANOMALY":62.0076,"EPHEMERIS_TYPE":0,"CLASSIFICATION_TYPE":"U","NORAD_CAT_ID":36744,"ELEMENT_SET_NO":999,"REV_AT_EPOCH":5005,"BSTAR":0,"MEAN_MOTION_DOT":-3.47e-6,"MEAN_MOTION_DDOT":0},{"OBJECT_NAME":"FENGYUN 3B","OBJECT_ID":"2010-059A","EPOCH":"2026-03-07T04:34:02.461728","MEAN_MOTION":14.14817972,"ECCENTRICITY":0.0023029,"INCLINATION":98.9767,"RA_OF_ASC_NODE":111.71,"ARG_OF_PERICENTER":114.9716,"MEAN_ANOMALY":332.1467,"EPHEMERIS_TYPE":0,"CLASSIFICATION_TYPE":"U","NORAD_CAT_ID":37214,"ELEMENT_SET_NO":999,"REV_AT_EPOCH":79300,"BSTAR":0.00019888,"MEAN_MOTION_DOT":3.39e-6,"MEAN_MOTION_DDOT":0},{"OBJECT_NAME":"SUOMI NPP","OBJECT_ID":"2011-061A","EPOCH":"2026-03-07T03:14:49.779168","MEAN_MOTION":14.19542601,"ECCENTRICITY":4.07e-5,"INCLINATION":98.7868,"RA_OF_ASC_NODE":7.7583,"ARG_OF_PERICENTER":253.2273,"MEAN_ANOMALY":106.8858,"EPHEMERIS_TYPE":0,"CLASSIFICATION_TYPE":"U","NORAD_CAT_ID":37849,"ELEMENT_SET_NO":999,"REV_AT_EPOCH":74396,"BSTAR":7.6504e-5,"MEAN_MOTION_DOT":1.17e-6,"MEAN_MOTION_DDOT":0},{"OBJECT_NAME":"METEOSAT-10 (MSG-3)","OBJECT_ID":"2012-035B","EPOCH":"2026-03-06T19:05:34.948032","MEAN_MOTION":1.00267966,"ECCENTRICITY":0.000249,"INCLINATION":4.4292,"RA_OF_ASC_NODE":61.4529,"ARG_OF_PERICENTER":283.3598,"MEAN_ANOMALY":106.334,"EPHEMERIS_TYPE":0,"CLASSIFICATION_TYPE":"U","NORAD_CAT_ID":38552,"ELEMENT_SET_NO":999,"REV_AT_EPOCH":4983,"BSTAR":0,"MEAN_MOTION_DOT":-8.0e-8,"MEAN_MOTION_DDOT":0},{"OBJECT_NAME":"METOP-B","OBJECT_ID":"2012-049A","EPOCH":"2026-03-07T02:55:51.641472","MEAN_MOTION":14.21443608,"ECCENTRICITY":0.0001185,"INCLINATION":98.6647,"RA_OF_ASC_NODE":119.5956,"ARG_OF_PERICENTER":280.0234,"MEAN_ANOMALY":80.0809,"EPHEMERIS_TYPE":0,"CLASSIFICATION_TYPE":"U","NORAD_CAT_ID":38771,"ELEMENT_SET_NO":999,"REV_AT_EPOCH":69876,"BSTAR":7.6748e-5,"MEAN_MOTION_DOT":1.24e-6,"MEAN_MOTION_DDOT":0},{"OBJECT_NAME":"INSAT-3D","OBJECT_ID":"2013-038B","EPOCH":"2026-03-06T23:26:38.829120","MEAN_MOTION":1.00272408,"ECCENTRICITY":0.0001682,"INCLINATION":1.6618,"RA_OF_ASC_NODE":83.8778,"ARG_OF_PERICENTER":248.3082,"MEAN_ANOMALY":313.6571,"EPHEMERIS_TYPE":0,"CLASSIFICATION_TYPE":"U","NORAD_CAT_ID":39216,"ELEMENT_SET_NO":999,"REV_AT_EPOCH":4605,"BSTAR":0,"MEAN_MOTION_DOT":-3.42e-6,"MEAN_MOTION_DDOT":0},{"OBJECT_NAME":"FENGYUN 3C","OBJECT_ID":"2013-052A","EPOCH":"2026-03-07T04:51:11.611008","MEAN_MOTION":14.15728046,"ECCENTRICITY":0.001396,"INCLINATION":98.4889,"RA_OF_ASC_NODE":44.8135,"ARG_OF_PERICENTER":320.7842,"MEAN_ANOMALY":39.2321,"EPHEMERIS_TYPE":0,"CLASSIFICATION_TYPE":"U","NORAD_CAT_ID":39260,"ELEMENT_SET_NO":999,"REV_AT_EPOCH":64413,"BSTAR":0.00010968,"MEAN_MOTION_DOT":1.74e-6,"MEAN_MOTION_DDOT":0},{"OBJECT_NAME":"METEOR-M 2","OBJECT_ID":"2014-037A","EPOCH":"2026-03-07T03:34:56.947872","MEAN_MOTION":14.21427372,"ECCENTRICITY":0.0005518,"INCLINATION":98.5025,"RA_OF_ASC_NODE":45.5546,"ARG_OF_PERICENTER":345.518,"MEAN_ANOMALY":14.5839,"EPHEMERIS_TYPE":0,"CLASSIFICATION_TYPE":"U","NORAD_CAT_ID":40069,"ELEMENT_SET_NO":999,"REV_AT_EPOCH":60482,"BSTAR":0.00013141,"MEAN_MOTION_DOT":2.45e-6,"MEAN_MOTION_DDOT":0},{"OBJECT_NAME":"HIMAWARI-8","OBJECT_ID":"2014-060A","EPOCH":"2026-03-05T23:13:24.936672","MEAN_MOTION":1.00271621,"ECCENTRICITY":7.206e-5,"INCLINATION":0.0252,"RA_OF_ASC_NODE":238.2083,"ARG_OF_PERICENTER":99.4681,"MEAN_ANOMALY":315.0191,"EPHEMERIS_TYPE":0,"CLASSIFICATION_TYPE":"U","NORAD_CAT_ID":40267,"ELEMENT_SET_NO":999,"REV_AT_EPOCH":4172,"BSTAR":0,"MEAN_MOTION_DOT":-2.82e-6,"MEAN_MOTION_DDOT":0},{"OBJECT_NAME":"FENGYUN 2G","OBJECT_ID":"2014-090A","EPOCH":"2026-03-07T00:41:59.003232","MEAN_MOTION":1.00273777,"ECCENTRICITY":0.0001657,"INCLINATION":5.3807,"RA_OF_ASC_NODE":74.0559,"ARG_OF_PERICENTER":149.1646,"MEAN_ANOMALY":51.7161,"EPHEMERIS_TYPE":0,"CLASSIFICATION_TYPE":"U","NORAD_CAT_ID":40367,"ELEMENT_SET_NO":999,"REV_AT_EPOCH":4097,"BSTAR":0,"MEAN_MOTION_DOT":-3.04e-6,"MEAN_MOTION_DDOT":0}]
